QIANFAN-49              
1 62250U 24232P   25337.87843676  .00000187  00000+0  27100-3 0  9995
2 62250  89.0035  42.1293 0013469 213.2239 146.8068 13.50976436 66647
QIANFAN-50              
1 62251U 24232Q   25337.75498367  .00000180  00000+0  26063-3 0  9996
2 62251  89.0041  42.1493 0015066 215.8379 144.1763 13.50977865 66656
QIANFAN-51              
1 62252U 24232R   25337.88667010  .00000185  00000+0  26851-3 0  9994
2 62252  89.0034  42.1306 0012452 218.0461 141.9812 13.50976135 66665
QIANFAN-52              
1 62253U 24232S   25337.91546141  .00000090  00000+0  12052-3 0  9993
2 62253  89.0031  42.0016 0014705 210.8807 149.1481 13.50973960 66752
QIANFAN-53              
1 62254U 24232T   25337.74676154  .00000173  00000+0  24870-3 0  9996
2 62254  89.0038  42.1224 0013534 211.9964 148.0367 13.50976567 66697
QIANFAN-54              
1 62255U 24232U   25337.86200754  .00000183  00000+0  26546-3 0  9992
2 62255  89.0029  41.7900 0000861 191.2657 168.8475 13.50976852 98212
QIANFAN-55              
1 62785U 25016A   25337.88817053  .00000157  00000+0  22419-3 0  9995
2 62785  88.9775 104.1224 0017387  19.5176 340.6637 13.50984352 45999
QIANFAN-56              
1 62786U 25016B   25337.90452449  .00000151  00000+0  21460-3 0  9992
2 62786  88.9749 103.9596 0016110  22.2934 337.8914 13.50975384 46044
